{
 "generated_at": "2026-06-20T08:22:11Z",
 "sources": [
  {
   "name": "CelesTrak",
   "url": "https://celestrak.org/NORAD/elements/",
   "license": "frei verfügbar; Attribution. Ursprünglich USSPACECOM/Space-Track."
  },
  {
   "name": "GCAT (J. McDowell, planet4589.org)",
   "url": "https://planet4589.org/space/gcat/",
   "license": "CC-BY 4.0"
  }
 ],
 "satellites": [
  {
   "norad": 41335,
   "name": "SENTINEL-3A",
   "intl": "2016-011A",
   "group": "resource",
   "gcat": {
    "class": "C",
    "category": "IMG",
    "owner": "COPERN/ESA",
    "state": "I-EU"
   },
   "omm": {
    "OBJECT_NAME": "SENTINEL-3A",
    "OBJECT_ID": "2016-011A",
    "EPOCH": "2026-06-19T19:28:21.540288",
    "MEAN_MOTION": 14.26733276,
    "ECCENTRICITY": 0.0001415,
    "INCLINATION": 98.6249,
    "RA_OF_ASC_NODE": 238.1574,
    "ARG_OF_PERICENTER": 99.4675,
    "MEAN_ANOMALY": 260.6666,
    "EPHEMERIS_TYPE": 0,
    "CLASSIFICATION_TYPE": "U",
    "NORAD_CAT_ID": 41335,
    "ELEMENT_SET_NO": 999,
    "REV_AT_EPOCH": 53843,
    "BSTAR": 0.000029289,
    "MEAN_MOTION_DOT": 2.7e-7,
    "MEAN_MOTION_DDOT": 0
   }
  },
  {
   "norad": 43437,
   "name": "SENTINEL-3B",
   "intl": "2018-039A",
   "group": "resource",
   "gcat": {
    "class": "C",
    "category": "IMG",
    "owner": "COPERN/ESA",
    "state": "I-EU"
   },
   "omm": {
    "OBJECT_NAME": "SENTINEL-3B",
    "OBJECT_ID": "2018-039A",
    "EPOCH": "2026-06-19T17:08:43.005696",
    "MEAN_MOTION": 14.26735355,
    "ECCENTRICITY": 0.0000727,
    "INCLINATION": 98.6248,
    "RA_OF_ASC_NODE": 238.2105,
    "ARG_OF_PERICENTER": 93.2491,
    "MEAN_ANOMALY": 266.8773,
    "EPHEMERIS_TYPE": 0,
    "CLASSIFICATION_TYPE": "U",
    "NORAD_CAT_ID": 43437,
    "ELEMENT_SET_NO": 999,
    "REV_AT_EPOCH": 42448,
    "BSTAR": 0.000047152,
    "MEAN_MOTION_DOT": 7e-7,
    "MEAN_MOTION_DDOT": 0
   }
  },
  {
   "norad": 42969,
   "name": "SENTINEL-5P",
   "intl": "2017-064A",
   "group": "resource",
   "gcat": {
    "class": "C",
    "category": "IMG",
    "owner": "COPERN/ESA",
    "state": "I-EU"
   },
   "omm": {
    "OBJECT_NAME": "SENTINEL-5P",
    "OBJECT_ID": "2017-064A",
    "EPOCH": "2026-06-19T16:03:12.165120",
    "MEAN_MOTION": 14.19519301,
    "ECCENTRICITY": 0.0000992,
    "INCLINATION": 98.7925,
    "RA_OF_ASC_NODE": 112.7826,
    "ARG_OF_PERICENTER": 87.0975,
    "MEAN_ANOMALY": 273.0314,
    "EPHEMERIS_TYPE": 0,
    "CLASSIFICATION_TYPE": "U",
    "NORAD_CAT_ID": 42969,
    "ELEMENT_SET_NO": 999,
    "REV_AT_EPOCH": 44991,
    "BSTAR": 0.000038842,
    "MEAN_MOTION_DOT": 3.8e-7,
    "MEAN_MOTION_DDOT": 0
   }
  },
  {
   "norad": 46984,
   "name": "SENTINEL-6A",
   "intl": "2020-086A",
   "group": "resource",
   "gcat": {
    "class": "C",
    "category": "EOSCI",
    "owner": "COPERN/ESA",
    "state": "I-EU"
   },
   "omm": {
    "OBJECT_NAME": "SENTINEL-6A",
    "OBJECT_ID": "2020-086A",
    "EPOCH": "2026-06-19T14:00:50.122080",
    "MEAN_MOTION": 12.80929975,
    "ECCENTRICITY": 0.00079244,
    "INCLINATION": 66.0397,
    "RA_OF_ASC_NODE": 130.0742,
    "ARG_OF_PERICENTER": 270.1963,
    "MEAN_ANOMALY": 89.8144,
    "EPHEMERIS_TYPE": 0,
    "CLASSIFICATION_TYPE": "U",
    "NORAD_CAT_ID": 46984,
    "ELEMENT_SET_NO": 999,
    "REV_AT_EPOCH": 26063,
    "BSTAR": 0.000041848121,
    "MEAN_MOTION_DOT": -5.1e-7,
    "MEAN_MOTION_DDOT": 0
   }
  },
  {
   "norad": 66514,
   "name": "SENTINEL-6B",
   "intl": "2025-264A",
   "group": "resource",
   "gcat": {
    "class": "C",
    "category": "EOSCI",
    "owner": "COPERN/ESA",
    "state": "I-EU"
   },
   "omm": {
    "OBJECT_NAME": "SENTINEL-6B",
    "OBJECT_ID": "2025-264A",
    "EPOCH": "2026-06-19T14:01:20.191008",
    "MEAN_MOTION": 12.80929984,
    "ECCENTRICITY": 0.00080027,
    "INCLINATION": 66.0398,
    "RA_OF_ASC_NODE": 130.1996,
    "ARG_OF_PERICENTER": 269.1481,
    "MEAN_ANOMALY": 90.8617,
    "EPHEMERIS_TYPE": 0,
    "CLASSIFICATION_TYPE": "U",
    "NORAD_CAT_ID": 66514,
    "ELEMENT_SET_NO": 999,
    "REV_AT_EPOCH": 2747,
    "BSTAR": 0.000041221649,
    "MEAN_MOTION_DOT": -5.2e-7,
    "MEAN_MOTION_DDOT": 0
   }
  },
  {
   "norad": 28220,
   "name": "SHIYAN-1 (SY-1)",
   "intl": "2004-012A",
   "group": "resource",
   "gcat": {
    "class": null,
    "category": null,
    "owner": null,
    "state": null
   },
   "omm": {
    "OBJECT_NAME": "SHIYAN-1 (SY-1)",
    "OBJECT_ID": "2004-012A",
    "EPOCH": "2026-06-19T17:28:15.989376",
    "MEAN_MOTION": 15.33814474,
    "ECCENTRICITY": 0.0005346,
    "INCLINATION": 97.8686,
    "RA_OF_ASC_NODE": 248.9617,
    "ARG_OF_PERICENTER": 24.0812,
    "MEAN_ANOMALY": 336.0678,
    "EPHEMERIS_TYPE": 0,
    "CLASSIFICATION_TYPE": "U",
    "NORAD_CAT_ID": 28220,
    "ELEMENT_SET_NO": 999,
    "REV_AT_EPOCH": 21148,
    "BSTAR": 0.00034357,
    "MEAN_MOTION_DOT": 0.00011158,
    "MEAN_MOTION_DDOT": 0
   }
  },
  {
   "norad": 28893,
   "name": "SINAH 1",
   "intl": "2005-043D",
   "group": "resource",
   "gcat": {
    "class": null,
    "category": null,
    "owner": null,
    "state": null
   },
   "omm": {
    "OBJECT_NAME": "SINAH 1",
    "OBJECT_ID": "2005-043D",
    "EPOCH": "2026-06-19T20:32:44.202624",
    "MEAN_MOTION": 14.64159104,
    "ECCENTRICITY": 0.0013135,
    "INCLINATION": 98.2865,
    "RA_OF_ASC_NODE": 305.1937,
    "ARG_OF_PERICENTER": 267.588,
    "MEAN_ANOMALY": 92.3818,
    "EPHEMERIS_TYPE": 0,
    "CLASSIFICATION_TYPE": "U",
    "NORAD_CAT_ID": 28893,
    "ELEMENT_SET_NO": 999,
    "REV_AT_EPOCH": 10091,
    "BSTAR": 0.000052968,
    "MEAN_MOTION_DOT": 0.00000229,
    "MEAN_MOTION_DDOT": 0
   }
  },
  {
   "norad": 39418,
   "name": "SKYSAT-A",
   "intl": "2013-066C",
   "group": "resource",
   "gcat": {
    "class": "B",
    "category": "IMG",
    "owner": "SKYBOX",
    "state": "US"
   },
   "omm": {
    "OBJECT_NAME": "SKYSAT-A",
    "OBJECT_ID": "2013-066C",
    "EPOCH": "2026-06-19T16:54:18.878688",
    "MEAN_MOTION": 15.12985941,
    "ECCENTRICITY": 0.0019939,
    "INCLINATION": 97.3811,
    "RA_OF_ASC_NODE": 220.0216,
    "ARG_OF_PERICENTER": 308.191,
    "MEAN_ANOMALY": 51.7525,
    "EPHEMERIS_TYPE": 0,
    "CLASSIFICATION_TYPE": "U",
    "NORAD_CAT_ID": 39418,
    "ELEMENT_SET_NO": 999,
    "REV_AT_EPOCH": 68886,
    "BSTAR": 0.00012046,
    "MEAN_MOTION_DOT": 0.00002071,
    "MEAN_MOTION_DDOT": 0
   }
  },
  {
   "norad": 40072,
   "name": "SKYSAT-B",
   "intl": "2014-037D",
   "group": "resource",
   "gcat": {
    "class": "B",
    "category": "IMG",
    "owner": "SKYBOX",
    "state": "US"
   },
   "omm": {
    "OBJECT_NAME": "SKYSAT-B",
    "OBJECT_ID": "2014-037D",
    "EPOCH": "2026-06-19T08:15:36.707904",
    "MEAN_MOTION": 14.88032683,
    "ECCENTRICITY": 0.00041588,
    "INCLINATION": 98.384,
    "RA_OF_ASC_NODE": 129.4321,
    "ARG_OF_PERICENTER": 272.5492,
    "MEAN_ANOMALY": 87.5247,
    "EPHEMERIS_TYPE": 0,
    "CLASSIFICATION_TYPE": "U",
    "NORAD_CAT_ID": 40072,
    "ELEMENT_SET_NO": 999,
    "REV_AT_EPOCH": 64628,
    "BSTAR": 0.00011650803,
    "MEAN_MOTION_DOT": 0.00001009,
    "MEAN_MOTION_DDOT": 0
   }
  },
  {
   "norad": 41601,
   "name": "SKYSAT-C1",
   "intl": "2016-040C",
   "group": "resource",
   "gcat": {
    "class": "B",
    "category": "IMG",
    "owner": "TBELLA",
    "state": "US"
   },
   "omm": {
    "OBJECT_NAME": "SKYSAT-C1",
    "OBJECT_ID": "2016-040C",
    "EPOCH": "2026-06-19T13:28:03.213984",
    "MEAN_MOTION": 15.36334265,
    "ECCENTRICITY": 0.00032707,
    "INCLINATION": 96.9557,
    "RA_OF_ASC_NODE": 202.1525,
    "ARG_OF_PERICENTER": 53.7576,
    "MEAN_ANOMALY": 306.3971,
    "EPHEMERIS_TYPE": 0,
    "CLASSIFICATION_TYPE": "U",
    "NORAD_CAT_ID": 41601,
    "ELEMENT_SET_NO": 999,
    "REV_AT_EPOCH": 55823,
    "BSTAR": 0.0002102401,
    "MEAN_MOTION_DOT": 0.00007375,
    "MEAN_MOTION_DDOT": 0
   }
  }
 ]
}
